CTC2_L_00118016-03
1 20764U 26807GF  26037.47791667  .00000000  00000+0  00000-0 0  9996
2 20764  90.0000 180.0000 0000000   0.0000   0.0000 14.51731110    14
CTC2_L_00118016-04
1 20765U 25075JM  26037.47791667  .00000000  00000+0  00000-0 0  9993
2 20765  90.0000 180.0000 0000000   0.0000  90.0000 14.51731110    14
CTC2_L_00118017-01
1 20766U 26538CZ  26037.47791667  .00000000  00000+0  00000-0 0  9999
2 20766  90.0000 192.0000 0000000   0.0000 192.0000 14.51731110    11
CTC2_L_00118017-02
1 20767U 24211CU  26037.47791667  .00000000  00000+0  00000-0 0  9996
2 20767  90.0000 192.0000 0000000   0.0000 282.0000 14.51731110    12
CTC2_L_00118017-03
1 20768U 26824UK  26037.47791667  .00000000  00000+0  00000-0 0  9999
2 20768  90.0000 192.0000 0000000   0.0000  12.0000 14.51731110    14
CTC2_L_00118017-04
1 20769U 25383AG  26037.47791667  .00000000  00000+0  00000-0 0  9999
2 20769  90.0000 192.0000 0000000   0.0000 102.0000 14.51731110    15
CTC2_L_00118018-01
1 20770U 24551IL  26037.47791667  .00000000  00000+0  00000-0 0  9997
2 20770  90.0000 204.0000 0000000   0.0000 204.0000 14.51731110    14
CTC2_L_00118018-02
1 20771U 26854MN  26037.47791667  .00000000  00000+0  00000-0 0  9996
2 20771  90.0000 204.0000 0000000   0.0000 294.0000 14.51731110    14
CTC2_L_00118018-03
1 20772U 22625QB  26037.47791667  .00000000  00000+0  00000-0 0  9999
2 20772  90.0000 204.0000 0000000   0.0000  24.0000 14.51731110    16
CTC2_L_00118018-04
1 20773U 23443JR  26037.47791667  .00000000  00000+0  00000-0 0  9999
2 20773  90.0000 204.0000 0000000   0.0000 114.0000 14.51731110    17
CTC2_L_00118019-01
1 20774U 26805VM  26037.47791667  .00000000  00000+0  00000-0 0  9995
2 20774  90.0000 216.0000 0000000   0.0000 216.0000 14.51731110    14
CTC2_L_00118019-02
1 20775U 25774QX  26037.47791667  .00000000  00000+0  00000-0 0  9990
2 20775  90.0000 216.0000 0000000   0.0000 306.0000 14.51731110    15
CTC2_L_00118019-03
1 20776U 26209UE  26037.47791667  .00000000  00000+0  00000-0 0  9995
2 20776  90.0000 216.0000 0000000   0.0000  36.0000 14.51731110    16
CTC2_L_00118019-04
1 20777U 26064KR  26037.47791667  .00000000  00000+0  00000-0 0  9995
2 20777  90.0000 216.0000 0000000   0.0000 126.0000 14.51731110    17
CTC2_L_00118020-01
1 20778U 22691TJ  26037.47791667  .00000000  00000+0  00000-0 0  9998
2 20778  90.0000 228.0000 0000000   0.0000 228.0000 14.51731110    14
CTC2_L_00118020-02
1 20779U 25642KQ  26037.47791667  .00000000  00000+0  00000-0 0  9998
2 20779  90.0000 228.0000 0000000   0.0000 318.0000 14.51731110    15
CTC2_L_00118020-03
1 20780U 23857PL  26037.47791667  .00000000  00000+0  00000-0 0  9996
2 20780  90.0000 228.0000 0000000   0.0000  48.0000 14.51731110    17
CTC2_L_00118020-04
1 20781U 26972OL  26037.47791667  .00000000  00000+0  00000-0 0  9998
2 20781  90.0000 228.0000 0000000   0.0000 138.0000 14.51731110    18
CTC2_L_00118021-01
1 20782U 24493QL  26037.47791667  .00000000  00000+0  00000-0 0  9995
2 20782  90.0000 240.0000 0000000   0.0000 240.0000 14.51731110    17
CTC2_L_00118021-02
1 20783U 25831WS  26037.47791667  .00000000  00000+0  00000-0 0  9993
2 20783  90.0000 240.0000 0000000   0.0000 330.0000 14.51731110    18
CTC2_L_00118021-03
1 20784U 25948DQ  26037.47791667  .00000000  00000+0  00000-0 0  9993
2 20784  90.0000 240.0000 0000000   0.0000  60.0000 14.51731110    19
CTC2_L_00118021-04
1 20785U 24253NM  26037.47791667  .00000000  00000+0  00000-0 0  9992
2 20785  90.0000 240.0000 0000000   0.0000 150.0000 14.51731110    10
CTC2_L_00118022-01
1 20786U 23454EG  26037.47791667  .00000000  00000+0  00000-0 0  9995
2 20786  90.0000 252.0000 0000000   0.0000 252.0000 14.51731110    17
CTC2_L_00118022-02
1 20787U 22086DP  26037.47791667  .00000000  00000+0  00000-0 0  9996
2 20787  90.0000 252.0000 0000000   0.0000 342.0000 14.51731110    18
CTC2_L_00118022-03
1 20788U 24051GD  26037.47791667  .00000000  00000+0  00000-0 0  9991
2 20788  90.0000 252.0000 0000000   0.0000  72.0000 14.51731110    19
CTC2_L_00118022-04
1 20789U 26707EW  26037.47791667  .00000000  00000+0  00000-0 0  9992
2 20789  90.0000 252.0000 0000000   0.0000 162.0000 14.51731110    10
CTC2_L_00118023-01
1 20790U 24852TP  26037.47791667  .00000000  00000+0  00000-0 0  9993
2 20790  90.0000 264.0000 0000000   0.0000 264.0000 14.51731110    18
CTC2_L_00118023-02
1 20791U 24398MM  26037.47791667  .00000000  00000+0  00000-0 0  9999
2 20791  90.0000 264.0000 0000000   0.0000 354.0000 14.51731110    19
CTC2_L_00118023-03
1 20792U 25653UK  26037.47791667  .00000000  00000+0  00000-0 0  9995
2 20792  90.0000 264.0000 0000000   0.0000  84.0000 14.51731110    10
CTC2_L_00118023-04
1 20793U 23939OW  26037.47791667  .00000000  00000+0  00000-0 0  9991
2 20793  90.0000 264.0000 0000000   0.0000 174.0000 14.51731110    11
CTC2_L_00118024-01
1 20794U 24006BP  26037.47791667  .00000000  00000+0  00000-0 0  9998
2 20794  90.0000 276.0000 0000000   0.0000 276.0000 14.51731110    18
CTC2_L_00118024-02
1 20795U 23059QK  26037.47791667  .00000000  00000+0  00000-0 0  9996
2 20795  90.0000 276.0000 0000000   0.0000   6.0000 14.51731110    10
CTC2_L_00118024-03
1 20796U 25286CN  26037.47791667  .00000000  00000+0  00000-0 0  9991
2 20796  90.0000 276.0000 0000000   0.0000  96.0000 14.51731110    10
CTC2_L_00118024-04
1 20797U 22904TL  26037.47791667  .00000000  00000+0  00000-0 0  9996
2 20797  90.0000 276.0000 0000000   0.0000 186.0000 14.51731110    11
CTC2_L_00118025-01
1 20798U 25783DU  26037.47791667  .00000000  00000+0  00000-0 0  9995
2 20798  90.0000 288.0000 0000000   0.0000 288.0000 14.51731110    18
CTC2_L_00118025-02
1 20799U 25317KT  26037.47791667  .00000000  00000+0  00000-0 0  9999
2 20799  90.0000 288.0000 0000000   0.0000  18.0000 14.51731110    10
CTC2_L_00118025-03
1 20800U 24376GU  26037.47791667  .00000000  00000+0  00000-0 0  9996
2 20800  90.0000 288.0000 0000000   0.0000 108.0000 14.51731110    13
CTC2_L_00118025-04
1 20801U 26190US  26037.47791667  .00000000  00000+0  00000-0 0  9993
2 20801  90.0000 288.0000 0000000   0.0000 198.0000 14.51731110    13
CTC2_L_00118026-01
1 20802U 24141ZC  26037.47791667  .00000000  00000+0  00000-0 0  9998
2 20802  90.0000 300.0000 0000000   0.0000 300.0000 14.51731110    14
CTC2_L_00118026-02
1 20803U 26240DR  26037.47791667  .00000000  00000+0  00000-0 0  9991
2 20803  90.0000 300.0000 0000000   0.0000  30.0000 14.51731110    15
CTC2_L_00118026-03
1 20804U 26125HB  26037.47791667  .00000000  00000+0  00000-0 0  9994
2 20804  90.0000 300.0000 0000000   0.0000 120.0000 14.51731110    16
CTC2_L_00118026-04
1 20805U 26270CI  26037.47791667  .00000000  00000+0  00000-0 0  9996
2 20805  90.0000 300.0000 0000000   0.0000 210.0000 14.51731110    17
CTC2_L_00118027-01
1 20806U 22177LN  26037.47791667  .00000000  00000+0  00000-0 0  9999
2 20806  90.0000 312.0000 0000000   0.0000 312.0000 14.51731110    14
CTC2_L_00118027-02
1 20807U 22865QN  26037.47791667  .00000000  00000+0  00000-0 0  9994
2 20807  90.0000 312.0000 0000000   0.0000  42.0000 14.51731110    15
CTC2_L_00118027-03
1 20808U 26595VL  26037.47791667  .00000000  00000+0  00000-0 0  9999
2 20808  90.0000 312.0000 0000000   0.0000 132.0000 14.51731110    16
CTC2_L_00118027-04
1 20809U 26512XC  26037.47791667  .00000000  00000+0  00000-0 0  9999
2 20809  90.0000 312.0000 0000000   0.0000 222.0000 14.51731110    17
CTC2_L_00118028-01
1 20810U 26318TV  26037.47791667  .00000000  00000+0  00000-0 0  9995
2 20810  90.0000 324.0000 0000000   0.0000 324.0000 14.51731110    15
CTC2_L_00118028-02
1 20811U 25662CO  26037.47791667  .00000000  00000+0  00000-0 0  9997
2 20811  90.0000 324.0000 0000000   0.0000  54.0000 14.51731110    16
CTC2_L_00118028-03
1 20812U 22884BK  26037.47791667  .00000000  00000+0  00000-0 0  9991
2 20812  90.0000 324.0000 0000000   0.0000 144.0000 14.51731110    17
CTC2_L_00118028-04
1 20813U 26095FZ  26037.47791667  .00000000  00000+0  00000-0 0  9990
2 20813  90.0000 324.0000 0000000   0.0000 234.0000 14.51731110    18
CTC2_L_00118029-01
1 20814U 25325A   26037.47791667  .00000000  00000+0  00000-0 0  9996
2 20814  90.0000 336.0000 0000000   0.0000 336.0000 14.51731110    15
CTC2_L_00118029-02
1 20815U 23670LZ  26037.47791667  .00000000  00000+0  00000-0 0  9998
2 20815  90.0000 336.0000 0000000   0.0000  66.0000 14.51731110    16
CTC2_L_00118029-03
1 20816U 23461UP  26037.47791667  .00000000  00000+0  00000-0 0  9997
2 20816  90.0000 336.0000 0000000   0.0000 156.0000 14.51731110    17
CTC2_L_00118029-04
1 20817U 23447UE  26037.47791667  .00000000  00000+0  00000-0 0  9992
2 20817  90.0000 336.0000 0000000   0.0000 246.0000 14.51731110    18
CTC2_L_00118030-01
1 20818U 23656RW  26037.47791667  .00000000  00000+0  00000-0 0  9995
2 20818  90.0000 348.0000 0000000   0.0000 348.0000 14.51731110    15
CTC2_L_00118030-02
1 20819U 24016QI  26037.47791667  .00000000  00000+0  00000-0 0  9997
2 20819  90.0000 348.0000 0000000   0.0000  78.0000 14.51731110    16
CTC2_L_00118030-03
1 20820U 26821DW  26037.47791667  .00000000  00000+0  00000-0 0  9995
2 20820  90.0000 348.0000 0000000   0.0000 168.0000 14.51731110    18
CTC2_L_00118030-04
1 20821U 23406FX  26037.47791667  .00000000  00000+0  00000-0 0  9992
2 20821  90.0000 348.0000 0000000   0.0000 258.0000 14.51731110    19
